full_name,epoch_mjd,a,e,i,om,w,ma,per_y
 17423 (1988 SK2),57400,5.223547127,0.093187531,1.621060555,158.7210294,82.6950485,209.1506173,11.93868458
 17424 (1988 SP2),57400,5.202961689,0.157064861,12.68849242,170.095486,161.6523974,130.4271581,11.86818054
 17442 (1989 UO5),57400,5.253726086,0.045402996,15.7567967,31.35926217,325.1047749,87.75859934,12.04229721
 17492 Hippasos (1991 XG1),57400,5.13971074,0.067719152,29.20782056,89.05425189,219.96234,172.9396574,11.65242239
 17874 (1998 YM3),57400,5.214458665,0.045910702,2.547504466,46.00746025,50.17560348,171.8322528,11.90753992
 18037 (1999 NA38),57400,5.246540385,0.08255014,15.36388711,114.4747892,255.5465564,81.34855426,12.01759966
 18046 (1999 RN116),57400,5.211975403,0.057015332,33.28044368,164.6495781,153.0532961,133.2670023,11.89903491
 18054 (1999 SW7),57400,5.217874159,0.014402641,19.68519356,124.8699358,127.8591535,221.1336374,11.91924107
 18058 (1999 XY129),57400,5.127050624,0.078080616,9.073006282,26.15401005,51.01369694,134.4746121,11.60939561
 18060 (1999 XJ156),57400,5.133276458,0.055866236,6.635492292,224.9108769,151.9411685,196.7976106,11.63054815
 18062 (1999 XY187),57400,5.153429122,0.047743533,17.38581254,38.38510247,34.52939263,140.2167248,11.69910566
 18063 (1999 XW211),57400,5.146878513,0.056222232,17.98749116,327.0326925,65.28084172,198.9037785,11.67680636
 18071 (2000 BA27),57400,5.275109599,0.05593916,3.650908857,341.48559,80.77794182,190.0067563,12.11589311
 18137 (2000 OU30),57400,5.119051426,0.016725308,7.663410507,218.929077,211.8626021,2.230128746,11.58223683
 18228 Hyperenor (3163 T-1),57400,5.281391242,0.127280133,3.200208317,12.28177515,348.3637011,99.73140482,12.1375411
 18263 Anchialos (5167 T-2),57400,5.179158687,0.039851291,10.61593927,311.4112333,147.3051305,152.3468141,11.78683025
 18268 Dardanos (2140 T-3),57400,5.16291458,0.095570211,16.59595457,218.3907798,113.3453518,127.3845473,11.73142077
 18278 Drymas (4035 T-3),57400,5.187411232,0.067732406,17.92433679,31.52771382,206.5616973,210.67881,11.81501342
 18281 Tros (4317 T-3),57400,5.194382371,0.103542626,9.545896034,171.186868,170.6630045,129.4382899,11.83883796
 18282 Ilos (4369 T-3),57400,5.222155217,0.077604097,8.708518144,164.418745,213.537257,89.36779306,11.93391297
 18493 Demoleon (1996 HV9),57400,5.302389879,0.091124714,17.19744998,215.5409821,89.72436099,145.1966981,12.2100007
 18940 (2000 QV49),57400,5.259032493,0.073415071,3.70363469,133.6821179,221.7980577,81.71931372,12.06054639
 18971 (2000 QY177),57400,5.208981192,0.118307578,14.03035602,189.985594,43.04416389,219.5326875,11.88878262
 19018 (2000 RL100),57400,5.202683291,0.100977024,27.68739624,231.1929616,123.9529385,120.1080684,11.867228
 19020 (2000 SC6),57400,5.216929517,0.111868989,17.09661087,93.21047854,224.8063693,139.2811736,11.91600443
 19725 (1999 WT4),57400,5.172393054,0.06990269,9.956402243,43.32448793,35.2184459,124.8075902,11.76374175
 19844 (2000 ST317),57400,5.190810594,0.049044215,40.43123831,207.5394134,105.1797858,154.1536531,11.82662907
 19913 Aigyptios (1973 SU1),57400,5.124079035,0.057198931,7.122300828,141.514923,339.9152083,87.39741841,11.59930403
 20144 (1996 RA33),57400,5.188851171,0.012388997,9.355339918,29.49945968,160.0387269,29.85063172,11.81993324
 20424 (1998 VF30),57400,5.215690927,0.128426458,25.63586737,66.99675965,4.57095454,144.0092229,11.91176108
 20428 (1998 WG20),57400,5.219370487,0.144102453,21.04298475,45.42876335,5.18243465,160.1167887,11.92436855
 20716 (1999 XG91),57400,5.238135739,0.128073682,26.84170427,108.1944876,271.0078814,199.5813766,11.98873401
 20720 (1999 XP101),57400,5.292705939,0.144577776,18.1645405,100.7475067,351.5330608,126.0153001,12.17656665
 20729 (1999 XS143),57400,5.214971084,0.063685415,22.00441986,306.9257871,92.71204296,185.2237556,11.90929517
 20738 (1999 XG191),57400,5.162434013,0.011326292,12.52360337,33.24125789,324.2735659,221.776081,11.72978286
 20739 (1999 XM193),57400,5.197386206,0.137703669,12.12440257,312.1386787,183.9989366,95.65148397,11.84910878
 20947 Polyneikes (2638 T-2),57400,5.076656935,0.022676176,2.32940786,52.28263336,37.70747522,120.6069166,11.43865408
 20952 Tydeus (5151 T-2),57400,5.178744771,0.08387546,9.973776134,314.8993656,90.42135097,167.8222473,11.78541728
 20961 Arkesilaos (1973 SS1),57400,5.139165162,0.017375866,9.208353155,27.90549898,50.73803302,142.6343727,11.65056709
 20995 (1985 VY),57400,5.089921614,0.114177911,20.37763395,72.78484331,11.16803167,140.642885,11.48351504
 21271 (1996 RF33),57400,5.134040352,0.007824751,6.691835655,112.7704894,5.259665121,117.0677403,11.6331444
 21284 Pandion (1996 TC51),57400,5.23711349,0.101010206,7.034224095,184.0491199,181.7666378,207.4585775,11.98522469
 21370 (1997 TB28),57400,5.183183206,0.074345325,7.757728582,77.20556774,49.29003491,106.9033699,11.80057154
 21371 (1997 TD28),57400,5.234633906,0.07047591,7.87194086,61.36761934,56.39315777,94.75322606,11.97671384
 21372 (1997 TM28),57400,5.19677725,0.027751334,11.05234565,188.6828309,277.7052715,107.8784829,11.84702637
 21593 (1998 VL27),57400,5.087508218,0.04989646,3.354865016,291.0047849,129.8480245,168.4073061,11.47534861
 21595 (1998 WJ5),57400,5.20476592,0.134238381,25.050196,144.0314299,258.0465708,183.7840713,11.87435437
 21599 (1998 WA15),57400,5.208500374,0.115869497,11.20895436,218.883879,210.7058372,151.534795,11.88713656
 21601 (1998 XO89),57400,5.214616642,0.036410055,19.48205279,263.654785,213.3464645,139.7673281,11.90808104
 21602 Ialmenus (1998 YW1),57400,5.200478998,0.061740483,7.94280901,309.320056,194.7906031,92.37852123,11.85968687
 21900 Orus (1999 VQ10),57400,5.1282453,0.035672373,8.465848462,258.566885,181.2241294,135.064006,11.61345358
 22008 (1999 XM71),57400,5.155438529,0.008465922,4.260891199,108.7084836,287.2159315,174.0788621,11.70594884
 22009 (1999 XK77),57400,5.221906485,0.025915081,5.599114679,113.9801339,336.5531164,123.2879906,11.93306036
 22010 (1999 XM78),57400,5.102630192,0.014949941,1.406583578,65.35518725,311.9870213,193.70609,11.52655014
 22012 (1999 XO82),57400,5.198146268,0.109600535,7.405041041,98.75685474,27.84527901,87.22419459,11.85170808
 22014 (1999 XQ96),57400,5.15419213,0.105011511,29.56671631,260.125428,202.9034221,112.5074334,11.70170398
 22035 (1999 XR170),57400,5.241848082,0.096671917,16.41549231,286.5962817,126.1708916,151.3610527,12.00148115
 22041 (1999 XK192),57400,5.147299882,0.055316656,10.18283116,25.05938083,73.3562061,129.2663245,11.67824034
 22042 (1999 XP194),57400,5.186220568,0.091129741,6.864990081,24.52372017,1.914281595,186.3496534,11.81094582
 22049 (1999 XW257),57400,5.271871197,0.053278062,2.562335057,203.0856737,253.4090528,99.80923317,12.10473786
 22052 (2000 AQ14),57400,5.195313431,0.034293621,11.87927006,83.59165087,320.1877211,165.4248447,11.84202115
 22054 (2000 AP21),57400,5.187024853,0.054271995,20.92346871,287.0616237,231.6813165,74.40020206,11.8136934
 22055 (2000 AS25),57400,5.25284258,0.025984173,10.96780051,83.55289709,210.7081394,291.3883608,12.03925965
 22056 (2000 AU31),57400,5.135964476,0.144687508,7.200462634,35.88014834,341.9332432,218.9659569,11.63968478
 22059 (2000 AD75),57400,5.179479057,0.111055117,7.810150218,213.9877142,321.057481,56.95675684,11.78792392
 22149 (2000 WD49),57400,5.156062536,0.045827251,21.48468007,292.3671293,227.1381554,70.79875371,11.70807421
 22180 (2000 YZ),57400,5.182866431,0.071290927,29.2934589,247.6131553,147.0330862,56.83358211,11.79948975
 22199 Klonios (4572 P-L),57400,5.322780654,0.079336164,9.066850138,16.83156026,44.18138348,148.8508051,12.28050021
 22203 Prothoenor (6020 P-L),57400,5.209376368,0.101924622,1.379104592,189.3736923,95.20010939,290.3336655,11.89013555
 22222 Hodios (3156 T-2),57400,5.075867728,0.042977582,2.404224342,48.89740352,26.43902541,139.4040658,11.43598683
 22227 Polyxenos (5030 T-2),57400,5.229292864,0.133187546,10.94639873,289.8772303,157.8794871,134.6242935,11.95838826
 22404 (1995 ME4),57400,5.284807913,0.119041424,9.288709442,256.3623335,178.9043655,139.2592597,12.14932115
 22503 Thalpius (1997 TB12),57400,5.228084757,0.067974701,9.895289916,219.1514557,194.8280696,161.6962169,11.95424443
 22808 (1999 RU12),57400,5.187117982,0.183537996,10.47159443,310.0540958,342.4723868,176.3304772,11.81401156
 23075 (1999 XV83),57400,5.21572998,0.170386603,14.42168897,104.3014953,319.4586424,152.0937035,11.91189487
 23114 (2000 AL16),57400,5.206028992,0.051398216,1.958640956,43.52500472,352.884645,174.9058471,11.87867707
 23118 (2000 AU27),57400,5.185125326,0.203487446,3.685120917,1.624782797,74.46668319,150.1389993,11.8072046
 23119 (2000 AP33),57400,5.255550758,0.131235022,18.43081669,317.4992508,62.53777576,206.1905009,12.04857137
 23123 (2000 AU57),57400,5.332086981,0.058325814,8.527204652,317.7260417,125.7394101,148.5334894,12.31272104
 23126 (2000 AK95),57400,5.22422911,0.025973276,1.227968188,3.349572255,12.16288512,248.265438,11.94102271
 23135 (2000 AN146),57400,5.250672608,0.052124109,17.3661251,256.5945258,255.2175976,90.57310672,12.03180022
 23144 (2000 AY182),57400,5.237334547,0.068675278,9.416254931,230.1512496,211.21651,160.8039044,11.98598354
 23152 (2000 CS8),57400,5.214974764,0.150273713,11.42290457,129.3560373,293.3039845,164.973355,11.90930778
 23269 (2000 YH62),57400,5.215108429,0.024687569,8.721759612,285.7277425,314.4013438,337.4866418,11.90976565
 23285 (2000 YH119),57400,5.10471739,0.055510373,16.57719706,329.8747677,134.0893647,117.5024824,11.53362316
 23355 Elephenor (9602 P-L),57400,5.262854623,0.059820749,7.053774324,147.0877058,243.4010734,181.7821932,12.07369672
 23382 Epistrophos (4536 T-2),57400,5.216423599,0.104978132,15.03670103,174.4465486,284.7164938,131.3618942,11.91427112
 23383 Schedios (5146 T-2),57400,5.204796778,0.107549845,10.80850672,301.2563507,137.8163595,130.7733581,11.87445997
 23463 (1989 TX11),57400,5.17292587,0.049273222,12.89118521,110.6571812,272.8200112,77.02857987,11.7655595
